#aV2015  6 26  0  0  0.00000000     288 DD+AD WGS84 FIT  NGA
## 1850 432000.00000000   300.00000000 57199 0.0000000000000
+   31     1  2  3  4  5  6  7  9 10 11 12 13 14 15 16 17 18
+         19 20 21 22 23 24 25 26 27 28 29 30 31 32  0  0  0
+          0  0  0  0  0  0  0  0  0  0  0  0  0  0  0  0  0
+          0  0  0  0  0  0  0  0  0  0  0  0  0  0  0  0  0
+          0  0  0  0  0  0  0  0  0  0  0  0  0  0  0  0  0
++         2  2  2  2  2  2  2  2  2  2  2  2  2  2  2  2  2
++         2  2  2  2  2  2  2  2  2  2  2  2  2  2  0  0  0
++         0  0  0  0  0  0  0  0  0  0  0  0  0  0  0  0  0
++         0  0  0  0  0  0  0  0  0  0  0  0  0  0  0  0  0
++         0  0  0  0  0  0  0  0  0  0  0  0  0  0  0  0  0
%c cc cc ccc ccc cccc cccc cccc cccc ccccc ccccc ccccc ccccc
%c cc cc ccc ccc cccc cccc cccc cccc ccccc ccccc ccccc ccccc
%f  0.0000000  0.000000000  0.00000000000  0.000000000000000
%f  0.0000000  0.000000000  0.00000000000  0.000000000000000
%i    0    0    0    0      0      0      0      0         0
%i    0    0    0    0      0      0      0      0         0
/*      NGA, ST. LOUIS,MO.                                  
/*   EPHEMERIS COMPUTED FROM  1 DAYS OF DATA                
/*   EPOCHA SMOOTHER                                       
/* CCCCCCCCCCCCCCCCCCCCCCCCCCCCCCCCCCCCCCCCCCCCCCCCCCCCCCCCC
*  2015  6 26  4 25  0.00000000
P  1  -5706.237362  18257.754880 -18397.512178     -3.760983                    
V  1 -20876.477572  10503.447222  17140.054308      0.005315                    
P  2  21606.773507 -14993.440214   1248.340135    574.422440                    
V  2   3052.473154   2579.193559 -31549.642577      0.023796                    
P  3   5094.072908  17967.355632 -18857.010984    356.547332                    
V  3 -21682.763498 -10379.928607 -15766.824425      0.061822                    
P  4 -13974.749185  19106.668448 -12100.907651    -21.526628                    
V  4 -14313.810140   5397.682737  26020.931026     -0.024194                    
P  5  15600.902731  -7905.426969  19989.258610   -225.057872                    
V  5  21831.364925  13211.221081 -11598.257434      0.044264                    
P  6  23365.405183  -4477.351973 -11805.297551      2.879536                    
V  6 -11633.821220   9737.702945 -26721.780705      0.085163                    
P  7   9497.367853  11869.698631  21907.445724    470.921894                    
V  7 -23908.248574  13605.477588   2635.841358      0.022754                    
P  9   7868.987549  23086.416224  10487.782937   -174.330368                    
V  9  -2300.259851  13389.749841 -27749.049713     -0.037067                    
P 10  24479.414086   8326.560289   6581.897631   -180.252344                    
V 10   6173.315193   6940.779631 -29539.693327     -0.013873                    
P 11  -6650.153768  23083.774917 -11737.148711   -587.441713                    
V 11 -12165.287909   8574.760858  25025.068349     -0.024703                    
P 12  -1835.536402 -16976.206373 -20509.417433    304.656018                    
V 12  22151.760005  12984.765882 -12584.775251      0.032562                    
P 13  12437.243105 -17268.716941  15829.834924   -126.720751                    
V 13   -297.824130  20339.891216  22110.455925     -0.034061                    
P 14 -14049.438399  -7658.133847 -20980.321243     53.347534                    
V 14   2262.632501 -27077.471916   8119.868367     -0.027294                    
P 15   4341.052310 -24740.231140   8026.629527   -257.055679                    
V 15   4370.687738  10182.600054  29018.478510     -0.021087                    
P 16 -15980.522668   5668.172143  20463.510464   -115.034159                    
V 16 -21533.258905 -14557.109248 -12374.331560      0.039849                    
P 17  14184.866956   6891.015502 -21112.588019   -177.527541                    
V 17  -1315.273485  27394.808068   7746.961737     -0.015983                    
P 18 -20579.998875 -16082.355727   6116.755927    412.338941                    
V 18   7910.583427    255.686250  29460.008411      0.030325                    
P 19  -8172.457378  23168.124435   9268.576027   -514.338712                    
V 19  -1741.400660 -12359.579633  29198.799363     -0.009716                    
P 20  -1835.765063 -17327.338947  19878.379059    333.096097                    
V 20  23944.795133   9542.789285  10529.046191      0.034250                    
P 21 -12512.710376 -10915.102444  21482.517881   -458.523601                    
V 21  21606.222084 -13959.097367   5329.703547     -0.032674                    
P 22 -24661.972897  -8226.708346  -5634.868369    364.841487                    
V 22  -4831.123644  -6818.225651  29659.436060      0.037336                    
P 23    454.842428  26312.099900    170.496745   -117.182255                    
V 23  -3599.650524     81.372624 -31767.739433     -0.023653                    
P 24   8308.271328 -19009.111768 -16538.587468     -0.277848                    
V 24  18920.409625  -9363.648387  20455.752317     -0.006155                    
P 25 -14603.468159 -18143.640234 -13020.947505     -5.995104                    
V 25  15046.913151   6427.444888 -25874.506481     -0.042536                    
P 26 -22552.215402  -1278.595665  13964.239492     -1.744596                    
V 26 -14490.829791 -10479.407787 -24338.868325     -0.033636                    
P 27 -12224.391042  14921.849158  18184.210919     -0.163684                    
V 27  -1967.440855 -23123.560376  17746.540426      0.027621                    
P 28  22857.945228  13365.870260  -1969.731307    449.395830                    
V 28   1689.162265   3357.728942  32184.048296      0.025240                    
P 29  -5200.433520 -24475.599248   9000.878474    618.886407                    
V 29   2576.833435 -11282.417688 -29204.295937      0.022618                    
P 30  19010.769121   4643.367072  17981.370408    -25.988464                    
V 30 -19664.963503  11731.183572  17678.404062      0.071436                    
P 31 -24270.423904   6577.219563  -8927.285789    311.782776                    
V 31   9023.122373  -7235.472552 -29108.427912     -0.012054                    
P 32  -9154.214985  12555.043331 -21552.313336   -115.844458                    
V 32 -22588.556694 -15477.439079   1115.721299      0.098165                    
EOF
